Skip Page Navigation
NASA Logo - Jet Propulsion Laboratory				+ View the NASA Portal
+ Center for Near-Earth Object Studies			
JPL Home	Earth	Solar System	Stars & Galaxies	Technology

JPL Solar System Dynamics
BODIES		ORBITS		EPHEMERIDES		TOOLS		PHYSICAL DATA		DISCOVERY		FAQ		SITE MAP

IMPORTANT: The SSD Announcement email list is now available. Major changes are coming in the near future, including possible hostname and/or URL changes. To be notified of such changes, subscribe to this email list.

Please visit this page for more details.


Don't show this message again
HORIZONS Web-Interface
This tool provides a web-based limited interface to JPL's HORIZONS system which can be used to generate ephemerides for solar-system bodies. Full access to HORIZONS features is available via the primary telnet interface. HORIZONS system news shows recent changes and improvements. A web-interface tutorial is available to assist new users.
Current Settings
Ephemeris Type [change] : 	ELEMENTS
Target Body [change] : 	Saturn [699]
Center [change] : 	Saturn System Barycenter [500@6]
Time Span [change] : 	Start=JD 2458850.0, Stop=JD 2464329.0, Intervals=500
Table Settings [change] : 	CSV format=YES
Display/Output [change] : 	default (formatted HTML)
Object Data Page
 Revised: January 23, 2020             Saturn                               699
 
 PHYSICAL DATA (updated 2020-Jan-03):
  Mass x10^26 (kg)      = 5.6834          Density (g/cm^3)       =  0.687+-.001
  Equat. radius (1 bar) = 60268+-4 km     Polar radius (km)      = 54364+-10
  Vol. Mean Radius (km) = 58232+-6        Flattening             =  0.09796
  Geometric Albedo      = 0.47            Rocky core mass (Mc/M) =  0.1027
  Sid. rot. period (III)= 10h 39m 22.4s   Sid. rot. rate (rad/s) =  0.000163785 
  Mean solar day, hrs   =~10.656         
  GM (km^3/s^2)         = 37931206.159    GM 1-sigma (km^3/s^2)  = +- 98
  Equ. grav, ge (m/s^2) = 10.44           Pol. grav, gp (m/s^2)  = 12.14+-0.01
  Vis. magnitude V(1,0) = -8.88          
  Vis. mag. (opposition)= +0.67           Obliquity to orbit     = 26.73 deg
  Sidereal orbit period = 29.447498 yr    Sidereal orbit period  = 10755.698 d
  Mean daily motion     = 0.0334979 deg/d Mean orbit velocity    =  9.68 km/s
  Atmos. temp. (1 bar)  = 134+-4 K        Escape speed, km/s    =  35.5          
  Aroche(ice)/Rp        =  2.71           Hill's sphere rad. Rp  = 1100
                                 Perihelion  Aphelion    Mean
  Solar Constant (W/m^2)         16.8        13.6        15.1
  Maximum Planetary IR (W/m^2)    4.7         4.5         4.6
  Minimum Planetary IR (W/m^2)    4.7         4.5         4.6
Results
*******************************************************************************
Ephemeris / WWW_USER Fri May 15 20:13:31 2020 Pasadena, USA      / Horizons    
*******************************************************************************
Target body name: Saturn (699)                    {source: sat427l_merged_DE438}
Center body name: Saturn Barycenter (6)           {source: sat427l_merged_DE438}
Center-site name: BODY CENTER
*******************************************************************************
Start time      : A.D. 2020-Jan-01 12:00:00.0000 TDB
Stop  time      : A.D. 2035-Jan-01 12:00:00.0000 TDB
Step-size       : 500 steps
*******************************************************************************
Center geodetic : 0.00000000,0.00000000,0.0000000 {E-lon(deg),Lat(deg),Alt(km)}
Center cylindric: 0.00000000,0.00000000,0.0000000 {E-lon(deg),Dxy(km),Dz(km)}
Center radii    : (undefined)                                                  
Keplerian GM    : 1.2779636469378093E-18 au^3/d^2
Output units    : AU-D, deg, Julian Day Number (Tp)                            
Output type     : GEOMETRIC osculating elements
Output format   : 10
Reference frame : ICRF/J2000.0                                                 
Coordinate systm: Ecliptic and Mean Equinox of Reference Epoch                 
*******************************************************************************
            JDTDB,            Calendar Date (TDB),                     EC,                     QR,                     IN,                     OM,                      W,                     Tp,                      N,                     MA,                     TA,                      A,                     AD,                     PR,
**************************************************************************************************************************************************************************************************************************************************************************************************************************************************
$$SOE
2459343.110000000, A.D. 2021-May-08 14:38:24.0000,  2.142814989049387E-01,  1.237887099176543E-06,  2.789959948736757E+01,  1.700334108819672E+02,  3.447033278722354E+02,  2.459348538304840E+06,  3.275373238472757E+01,  1.822027559683401E+02,  1.814593061686607E+02,  1.575484219159014E-06,  1.913081339141484E-06,  1.099111379953330E+01,
2459354.068000000, A.D. 2021-May-19 13:37:55.2000,  1.226906472067517E-02,  1.981326724289252E-06,  2.768686909667025E+01,  1.688405467576421E+02,  1.286298805561754E+01,  2.459352249323263E+06,  2.279847092441396E+01,  4.146304870625760E+01,  4.240474332493122E+01,  2.005937703802852E-06,  2.030548683316451E-06,  1.579053267184207E+01,
2459365.026000000, A.D. 2021-May-30 12:37:26.4000,  1.674338506973816E-01,  1.313354150931744E-06,  2.806368050457742E+01,  1.696841262593628E+02,  1.186074633440257E+02,  2.459359528879383E+06,  3.269167928690083E+01,  1.797101042047196E+02,  1.797902976689647E+02,  1.577477239534477E-06,  1.841600328137210E-06,  1.101197637602690E+01,
2459375.984000000, A.D. 2021-Jun-10 11:36:57.6000,  2.139315180724214E-01,  1.301519554343146E-06,  2.774200132322532E+01,  1.677887871984290E+02,  2.840295563264418E+00,  2.459381722794216E+06,  3.040159793397335E+01,  1.855314856163184E+02,  1.836681078211415E+02,  1.655733036327306E-06,  2.009946518311467E-06,  1.184148283198316E+01,
2459386.942000000, A.D. 2021-Jun-21 10:36:28.8000,  1.132873284569766E-01,  1.551465213535640E-06,  2.735229569102675E+01,  1.694317343810031E+02,  2.885091085064823E+02,  2.459381731558729E+06,  2.798615215479790E+01,  1.458202022053629E+02,  1.523319841660204E+02,  1.749682014621308E-06,  1.947898815706977E-06,  1.286350470792685E+01,
2459397.900000000, A.D. 2021-Jul-02 09:36:00.0000,  6.682598384064679E-02,  1.695318698221367E-06,  2.771624336127138E+01,  1.687586069491563E+02,  9.137440313990915E+01,  2.459402687011665E+06,  2.645140899644379E+01,  2.333767965657669E+02,  2.275332294680905E+02,  1.816723000066760E-06,  1.938127301912152E-06,  1.360986101150224E+01,
2459408.858000000, A.D. 2021-Jul-13 08:35:31.2000,  1.547452366650326E-01,  1.473057067617568E-06,  2.741758497479183E+01,  1.699075312289280E+02,  3.992655017641844E+01,  2.459402987038192E+06,  2.815360184957604E+01,  1.652887212172026E+02,  1.690761734563367E+02,  1.742737375185673E-06,  2.012417682753777E-06,  1.278699620472971E+01,
2459419.816000000, A.D. 2021-Jul-24 07:35:02.4000,  1.754591227383742E-01,  1.324037095642273E-06,  2.824912093309138E+01,  1.691519911674362E+02,  2.813375611739027E+02,  2.459414252801864E+06,  3.183097485526750E+01,  1.770820199820727E+02,  1.779206974893702E+02,  1.605787089706843E-06,  1.887537083771413E-06,  1.130973844303816E+01,
2459430.774000000, A.D. 2021-Aug-04 06:34:33.6000,  2.522241394056015E-02,  1.882961729626373E-06,  2.759205438251311E+01,  1.687615119016614E+02,  9.947482923552130E+01,  2.459435352446969E+06,  2.412559007266528E+01,  2.495422652717185E+02,  2.468647801382793E+02,  1.931683449183817E-06,  1.980405168741260E-06,  1.492191481807056E+01,
2459441.732000000, A.D. 2021-Aug-15 05:34:04.8000,  1.743173691872947E-01,  1.339783190720792E-06,  2.804824195649520E+01,  1.687797575567882E+02,  3.992698283530062E+01,  2.459447067025953E+06,  3.133645168735400E+01,  1.928192169795994E+02,  1.891700248989071E+02,  1.622637004489323E-06,  1.905490818257854E-06,  1.148821837238452E+01,
2459452.690000000, A.D. 2021-Aug-26 04:33:36.0000,  1.329757287938817E-01,  1.564952020985106E-06,  2.720167979065446E+01,  1.684108929422740E+02,  3.197674826158251E+02,  2.459446789478098E+06,  2.671020518341509E+01,  1.576041506866944E+02,  1.626269450219862E+02,  1.804969102892702E-06,  2.044986184800298E-06,  1.347799455406398E+01,
2459463.648000000, A.D. 2021-Sep-06 03:33:07.2000,  1.773792039449226E-01,  1.256391058979410E-06,  2.770723305909583E+01,  1.701329632778121E+02,  1.880800454804639E+02,  2.459468890658832E+06,  3.431580200139670E+01,  1.800939575544075E+02,  1.800667047940667E+02,  1.527302816807576E-06,  1.798214574635742E-06,  1.049079371612377E+01,
2459474.606000000, A.D. 2021-Sep-17 02:32:38.4000,  1.109336229576928E-01,  1.632886706676422E-06,  2.768262496329205E+01,  1.688042252174510E+02,  4.135409610360205E+01,  2.459480145094869E+06,  2.602250386177742E+01,  2.158588823865589E+02,  2.091820595752396E+02,  1.836630817272172E-06,  2.040374927867922E-06,  1.383417990490831E+01,
2459485.564000000, A.D. 2021-Sep-28 01:32:09.6000,  1.461257501448516E-01,  1.486454794694154E-06,  2.788639277788544E+01,  1.699010749382358E+02,  3.520024616834163E+02,  2.459480464462620E+06,  2.819974611426237E+01,  1.438056594271518E+02,  1.523869170157051E+02,  1.740835720185164E-06,  1.995216645676174E-06,  1.276607238027315E+01,
2459496.522000000, A.D. 2021-Oct-09 00:31:40.8000,  9.043048679617080E-02,  1.582821506252534E-06,  2.796564092459229E+01,  1.679609077470154E+02,  2.089635181715963E+02,  2.459502864591159E+06,  2.821550395745169E+01,  1.810405940441878E+02,  1.808715767491493E+02,  1.740187509888354E-06,  1.897553513524174E-06,  1.275894276220873E+01,
